IRIDIUM 126             
1 42809U 17039G   25061.86230351  .00000044  00000+0  85209-5 0  9991
2 42809  86.4032 190.5920 0002253  97.8853 262.2599 14.34217421402398
IRIDIUM 124             
1 42810U 17039H   25061.67201393  .00000695  00000+0  20048-3 0  9996
2 42810  86.4500 127.5198 0002151  89.0954 271.0494 14.43282521407108
IRIDIUM 128             
1 42811U 17039J   25061.92280891  .00000504  00000+0  17290-3 0  9999
2 42811  86.3969 222.0405 0002024  82.6174 277.5252 14.34215284402437
IRIDIUM 121             
1 42812U 17039K   25061.88133106  .00000099  00000+0  28291-4 0  9994
2 42812  86.4034 190.6088 0001929  94.8289 265.3128 14.34216966402271
IRIDIUM 133             
1 42955U 17061A   25061.95451652  .00000621  00000+0  21468-3 0  9993
2 42955  86.3971 222.1333 0002110  88.8965 271.2472 14.34221499387232
IRIDIUM 100             
1 42956U 17061B   25061.94817277  .00000598  00000+0  20645-3 0  9991
2 42956  86.3969 222.0657 0002120  88.7679 271.3760 14.34221867387252
IRIDIUM 122             
1 42957U 17061C   25061.91646173  .00000513  00000+0  17611-3 0  9990
2 42957  86.3970 222.0778 0002350  91.3166 268.8299 14.34221194387234
IRIDIUM 129             
1 42958U 17061D   25061.94183224  .00000108  00000+0  31449-4 0  9993
2 42958  86.3970 222.1291 0002072 103.7568 256.3859 14.34219161387258
